"name"	"category_name"	"alternative_names"	"name_en"	"milk_source"	"milk_type"	"curd"	"pasteurized"	"texture"	"aging"	"geographical_indication"	"dbpedia"	"images"	"country"	"region"	"province"	"comune"	"location"	"similar"	"use"	"rind"	"shape"	"diameter"	"weight"	"height"	"cookipedia"	"bbc"
"Roomy"													"Egypt"													
"Domyati"													"Egypt"													
"Areesh"													"Egypt"													
"Mesh"													"Egypt"													
"Ayib"													"Ethiopia"													
"Caravane"													"Mauritania"													
"Bokmakiri"													"South Africa"													
"Kwaito"													"South Africa"													
"Wara"													"Nigeria"													
"Lori"													"Armenia"													
"Chhena"													"Bangladesh"													
"Rubing"													"China"													
"Rushan"													"China"													
"Nguri"													"China"													
"Chura kampo"													"China"													
"Chura loenpa"													"China"													
"Chhurpi"													"China"													
"Suluguni"													"Georgia"													
"Bandel"													"India"													
"Paneer"													"India"													
"Chhena"													"India"													
"Khoa"													"India"													
"Kalari"		"Kiladi, Maish Krej"											"India"													
"Lighvan"													"Iran"													
"Sakura"													"Japan"													
"Labneh"													"Middle East"													
"Akkawi"													"Middle East"													
"Basket"													"Middle East"													
"Labneh"													"Middle East"													
"Jameed"													"Middle East"													
"Jibneh Arabieh"													"Middle East"													
"kashkawan"													"Middle East"													
"kashta"													"Middle East"													
"Majdoule"													"Middle East"													
"Nabulsi"													"Middle East"													
"Paneer"													"Middle East"													
"Shanklish"													"Middle East"													
"Syrian"													"Middle East"													
"Byaslag"													"Mongolia"													
"Flower of Rajya"													"Nepal"													
"Kesong"		"Quesong Puti"											"Philippines"													
"Imsil"													"South Korea"													
"Bachensteiner"													"Austria"													
"Bergkäse"													"Austria"													
"Brimsen"		"Bryndza"											"Austria"													
"Gelundener Käse"													"Austria"													
"Lüneberg"													"Austria"													
"Montafoner Sauerkäse"													"Austria"													
"Mondseer"													"Austria"													
"Staazer"													"Austria"													
"Steirerkäse"													"Austria"													
"Tiroler Graukäse"													"Austria"													
"Tyrolean grey"													"Austria"													
"Brussels"													"Belgium"													
"Chimay"													"Belgium"													
"Grevenbroeker"													"Belgium"													
"Herve"													"Belgium"													
"Le Wavreumont"													"Belgium"													
"Limburger"													"Belgium"													
"Maredsous"													"Belgium"													
"Mekkerbek"													"Belgium"													
"Passendale"													"Belgium"													
"Remoudou"													"Belgium"													
"Rodoric"													"Belgium"													
"Livno"													"Bosnia and Herzegovina"													
"Kashkaval"													"Bulgaria"													
"Sirene"													"Bulgaria"													
"Cherni Vit green"													"Bulgaria"													
"Krema"													"Bulgaria"													
"Dunavia"													"Bulgaria"													
"Anari"													"Cyprus"													
"Halloumi, Hellim"													"Cyprus"													
"Kefalotyri"													"Cyprus"													
"Paški sir"													"Croatia"													
"Škripavac"													"Croatia"													
"Tounjski sir"													"Croatia"													
"Dimsi"													"Croatia"													
"Abertam"													"Czech Republic"													
"Olomoucké syrečky"													"Czech Republic"													
"Danbo"													"Denmark"													
"Danish Blue"													"Denmark"													
"Danish tilsit"		"Tilsit Havarti"											"Denmark"													
"Esrom"		"Danish Port-Salut"											"Denmark"													
"Fynbo"													"Denmark"													
"Havarti"		"Cream Havarti"											"Denmark"													
"Molbo"													"Denmark"													
"Saga"													"Denmark"													
"Samsø"													"Denmark"													
"Tybo"													"Denmark"													
"Aura"													"Finland"													
"Lappi"													"Finland"													
"Leipäjuusto"													"Finland"													
"Oltermanni"													"Finland"													
"Raejuusto"													"Finland"													
"Allgäuer"													"Germany"													
"Bavaria blu"													"Germany"													
"Bonifaz"													"Germany"													
"Cambozola"													"Germany"													
"Harzer"													"Germany"													
"Handkäse"													"Germany"													
"Hirtenkäse"													"Germany"													
"Limburger"													"Germany"													
"Romadur"													"Germany"													
"Milbenkäse"													"Germany"													
"Neufchâtel"													"Germany"													
"Rauchkäse"													"Germany"													
"Tilsit"													"Germany"													
"Weisslacker"													"Germany"													
"Anthotyros"													"Greece"													
"Arseniko Naxou"													"Greece"													
"Batzos"													"Greece"													
"Chèvre Metsovou"													"Greece"													
"Feta"													"Greece"													
"Formaela"													"Greece"													
"Froumaela Valmandouras"													"Greece"													
"Galotyri"													"Greece"													
"Graviera"													"Greece"													
"Kalathaki"													"Greece"													
"Kalathotos"													"Greece"													
"Karikeftos"													"Greece"													
"Kaseri"													"Greece"													
"Katiki"													"Greece"													
"Kefalograviera"													"Greece"													
"Kefalotyri"													"Greece"													
"Kopanisti"													"Greece"													
"Krasotyri"													"Greece"													
"Ladenios"													"Greece"													
"Ladotyri"													"Greece"													
"Malaka"													"Greece"													
"Manouri"													"Greece"													
"Mastelo"													"Greece"													
"Manoura Sifnou"													"Greece"													
"Melichloro"													"Greece"													
"Metsovella"													"Greece"													
"Metsovone"													"Greece"													
"Myzithra"													"Greece"													
"Petroti"													"Greece"													
"Pichtogalo Chanion"													"Greece"													
"Sfela"													"Greece"													
"Stamatini"													"Greece"													
"Touloumisio"													"Greece"													
"Xygalo"													"Greece"													
"Xynomizithra"													"Greece"													
"Xynotyro"													"Greece"													
"Liptauer, Kőrözött"													"Hungary"													
"Oázis"													"Hungary"													
"Orda"													"Hungary"													
"Pálpusztai"													"Hungary"													
"Trappista"													"Hungary"													
"Höfðingi"													"Iceland"													
"Skyr"													"Iceland"													
"Latvijas"													"Latvia"													
"Sirenje"													"Republic of Macedonia"													
"Kashkaval"													"Republic of Macedonia"													
"Urda"													"Republic of Macedonia"													
"Ġbejna"													"Malta"													
"Edam"													"Netherlands"													
"Gouda"													"Netherlands"													
"Leerdammer"													"Netherlands"													
"Leyden"													"Netherlands"													
"Maasdam"													"Netherlands"													
"Parrano"													"Netherlands"													
"Vlaskaas"													"Netherlands"													
"Brunost"													"Norway"													
"Gamalost"													"Norway"													
"Geitost"													"Norway"													
"Gudbrandsdalsost"													"Norway"													
"Jarlsberg"													"Norway"													
"Nøkkelost"													"Norway"													
"Norvegia"													"Norway"													
"Pultost"													"Norway"													
"Snøfrisk"													"Norway"													
"Bryndza"													"Poland"													
"Bundz"													"Poland"													
"Bursztyn"													"Poland"													
"Gołka"													"Poland"													
"Koryciński"													"Poland"													
"Oscypek"													"Poland"													
"Redykołka"													"Poland"													
"Rokpol"													"Poland"													
"Twaróg"		"Quark"											"Poland"													
"Tylżycki"													"Poland"													
"Castelo Branco"													"Portugal"													
"Requeijão"													"Portugal"													
"Saloio"													"Portugal"													
"Santarém"													"Portugal"													
"São Jorge"													"Portugal"													
"Serra da Estrela"													"Portugal"													
"Tomar"													"Portugal"													
"Brânzǎ de burduf"													"Romania"													
"Caşcaval"													"Romania"													
"Caş"													"Romania"													
"Urdǎ"													"Romania"													
"Telemea"													"Romania"													
"Năsal"													"Romania"													
"Altaiski"													"Russia"													
"Brynza"													"Russia"													
"Chernyi Altai"													"Russia"													
"Circassian"													"Russia"													
"Dorojobuzhskii"													"Russia"													
"Dorozhnyi"													"Russia"													
"Golandskii"													"Russia"													
"Gornoaltayskii"													"Russia"													
"Korall"													"Russia"													
"Kostromskoi"													"Russia"													
"Moale"													"Russia"													
"Moskovskii"													"Russia"													
"Medynskii"													"Russia"													
"Omichka"													"Russia"													
"Pikantnyi"													"Russia"													
"Poshikhonskii"													"Russia"													
"Rossiyski"													"Russia"													
"Sovetskii"													"Russia"													
"Tvorog"													"Russia"													
"Uglichskii"													"Russia"													
"Yaroslavskii"													"Russia"													
"Zakusochnyi"													"Russia"													
"Kačkavalj"													"Serbia"													
"Sremski Sir"													"Serbia"													
"Zlatarski Sir"													"Serbia"													
"Sjenički Sir"													"Serbia"													
"Svrljiški Belmuz"													"Serbia"													
"Krivovirski Kačkavalj"													"Serbia"													
"Homoljski ovčiji sir"													"Serbia"													
"Homoljski kozji sir"													"Serbia"													
"Homoljski kravlji sir"													"Serbia"													
"Pirotski Kačkavalj"													"Serbia"													
"Lužnička Vurda"													"Serbia"													
"Užički Kajmak"													"Serbia"													
"Bryndza"													"Slovakia"													
"Liptauer"													"Slovakia"													
"Korbaciky"													"Slovakia"													
"Oštiepok"													"Slovakia"													
"Parenica"													"Slovakia"													
"Tvaroh"													"Slovakia"													
"Bohinc Jože"													"Slovenia"													
"Tolminc"													"Slovenia"													
"Planinski sir"													"Slovenia"													
"Mohant"													"Slovenia"													
"Nanoški sir"													"Slovenia"													
"Afuega'l pitu"													"Spain"													
"Cabrales"													"Spain"													
"Gamonedo"													"Spain"													
"Garrotxa"													"Spain"													
"Idiazábal"													"Spain"													
"Majorero"													"Spain"													
"Manchego"													"Spain"													
"Mató"													"Spain"													
"Murcian"													"Spain"													
"La Serena"													"Spain"													
"Picón Bejes-Tresviso"													"Spain"													
"Roncal"													"Spain"													
"Tetilla"													"Spain"													
"Torta del Casar"													"Spain"													
"Valdeón"													"Spain"													
"Zamorano"													"Spain"													
"Blå Gotland"		"Gotland Blue"											"Sweden"													
"Grevé"													"Sweden"													
"Herrgårdsost"													"Sweden"													
"Hushållsost"													"Sweden"													
"Prästost"													"Sweden"													
"Svecia"													"Sweden"													
"Västerbottensost"													"Sweden"													
"Gruyère"													"Switzerland"													
"Abaza"													"Turkey"													
"Armola"													"Turkey"													
"Arnavut"													"Turkey"													
"Antep"													"Turkey"													
"Beyaz peynir"													"Turkey"													
"Civil"													"Turkey"													
"Çamur"													"Turkey"													
"Çerkez Füme Peynir"													"Turkey"													
"Çökelek"													"Turkey"													
"Çömlek"													"Turkey"													
"Dil"													"Turkey"													
"Ezine"													"Turkey"													
"Edirne"													"Turkey"													
"Gravyer"													"Turkey"													
"Hellim"													"Turkey"													
"Kaşar"													"Turkey"													
"Keçi"													"Turkey"													
"Kelle"													"Turkey"													
"Kirlihanım"													"Turkey"													
"Kopanisti"													"Turkey"													
"Küflü Peynir"													"Turkey"													
"Küp"													"Turkey"													
"Otlu Peynir"													"Turkey"													
"Labne"													"Turkey"													
"Lor"													"Turkey"													
"Manyas"													"Turkey"													
"Mihaliç"													"Turkey"													
"Obruk"													"Turkey"													
"Örgü"													"Turkey"													
"Salamura"													"Turkey"													
"Sayas"													"Turkey"													
"Telli"													"Turkey"													
"Tulum"													"Turkey"													
"Bilozhar"													"Ukraine"													
"Bukovinskyi"													"Ukraine"													
"Bryndza"													"Ukraine"													
"Dobrodar"													"Ukraine"													
"Smetankowyi"													"Ukraine"													
"Syr"													"Ukraine"													
"Ukraїnskyi"													"Ukraine"													
"Vurda"													"Ukraine"													
"Oka"													"Canada"													
"Cuajada"													"El Salvador"													
"Crema"													"El Salvador"													
"Queso Fresco"													"El Salvador"													
"Enredo"													"El Salvador"													
"Queto"													"El Salvador"													
"Cuajada"													"Honduras"													
"Crema"													"Honduras"													
"Queso Fresco"													"Honduras"													
"Quesillo"													"Honduras"													
"Seco"													"Honduras"													
"Añejo"													"Mexico"													
"Chihuahua"													"Mexico"													
"Cotija"													"Mexico"													
"Criollo"													"Mexico"													
"Chiapas"													"Mexico"													
"Oaxaca"													"Mexico"													
"Panela"													"Mexico"													
"Peter Anderson Queso"													"Mexico"													
"Lingallin"													"Mexico"													
"Quesillo"													"Nicaragua"													
"Tasty"													"Australia"													
"Chesdale"													"New Zealand"													
"Evansdale"													"New Zealand"													
"Eatondale"													"New Zealand"													
"Miles Dalton"													"New Zealand"													
"Cremoso"													"Argentina"													
"Criollo"													"Argentina"													
"Goya"													"Argentina"													
"Reggianito"													"Argentina"													
"Sardo"													"Argentina"													
"Tandil"													"Argentina"													
"Chaqueño"													"Bolivia"													
"Menonita"													"Bolivia"													
"Catupiry"													"Brazil"													
"Minas"		"Queijo Minas Padrão, Queijo Frescal, Queijo Curado"											"Brazil"													
"Coalho"													"Brazil"													
"Requeijão"													"Brazil"													
"Prato"													"Brazil"													
"Chanco"													"Chile"													
"Gauda"													"Chile"													
"Panquehue"													"Chile"													
"Renaico"													"Chile"													
"Quesillo"													"Colombia"													
"Queso Campesino"													"Colombia"													
"Queso Paipa"													"Colombia"													
"Queso Costeño"													"Colombia"													
"Cuajada"													"Colombia"													
"Queso Guayanés"													"Venezuela"													
"Queso Palmita"													"Venezuela"													
"Queso de año"													"Venezuela"													
"Queso semiduro"													"Venezuela"													
"Queso crineja"													"Venezuela"													
"Queso Llanero"													"Venezuela"													
